IRIDIUM 130             
1 43073U 17083D   26068.90267544  .00000001  00000+0 -66750-5 0  9995
2 43073  86.4028   3.7574 0001825  90.7485 269.3920 14.34217420429882
W-SERIES 4              
1 64543U 25135R   26068.82962635  .00052628  21484-5  63083-3 0  9991
2 64543  97.4458 182.1022 0402581  65.9998 298.2822 15.01503849 39543
